MALLIGYONG-1            
1 58400U 23179A   24210.22449142  .00006001  00000+0  26852-3 0  9998
2 58400  97.3981  96.3778 0003409  75.1276 285.0337 15.21652419 37969
